PERSEUS-M1              
1 40039U 14033AF  26141.27427355  .00001042  00000+0  99392-4 0  9998
2 40039  97.9636  84.9689 0012545  33.4876 326.7135 14.95531145646618
POLYITAN-1              
1 40042U 14033AJ  26141.48176306  .00012393  00000+0  40079-3 0  9990
2 40042  98.0963 165.2371 0005913 228.6058 131.4674 15.32223174649501
TIGRISAT                
1 40043U 14033AK  26141.36718257  .00001425  00000+0  16970-3 0  9992
2 40043  97.7802 292.0012 0049942 161.1452 199.1628 14.85031228641641
AEROCUBE 6A             
1 40045U 14033AM  26141.43734138  .00003456  00000+0  29471-3 0  9994
2 40045  97.7226 308.6815 0039934 104.5559 256.0098 14.97774512642612
AEROCUBE 6B             
1 40046U 14033AN  26141.19858742  .00004553  00000+0  37296-3 0  9999
2 40046  97.7184 308.1780 0038768  98.5412 262.0207 14.99198163642710
CANX-4                  
1 40055U 14034C   26141.13117201  .00000542  00000+0  76875-4 0  9993
2 40055  98.3155  15.4472 0014140  97.2952 262.9867 14.81207409640527
CANX-5                  
1 40056U 14034D   26141.46767975  .00000564  00000+0  79720-4 0  9995
2 40056  98.3158  15.8381 0014131  96.4887 263.7934 14.81225039631389
UKUBE-1                 
1 40074U 14037F   26141.45538329  .00005489  00000+0  31473-3 0  9999
2 40074  98.4247 141.9303 0000625 139.0150 221.1125 15.13063709644513
BRITE-PL2 (HEWELIUSZ)   
1 40119U 14049B   26141.52560828  .00001583  00000+0  15195-3 0  9993
2 40119  97.9071 253.3266 0013790 192.2030 167.8857 14.94478729637467
AEROCUBE 5C             
1 40965U 15058B   26141.54947344  .00002097  00000+0  19396-3 0  9995
2 40965  64.7681 345.4495 0129988  73.7557 287.7810 14.91285996361684
AEROCUBE 7              
1 40966U 15058C   26140.81895860  .00002892  00000+0  23987-3 0  9994
2 40966  64.7630 330.5249 0119730  72.6870 288.7301 14.95493189361866
FOX-1A (AO-85)          
1 40967U 15058D   26141.05170779  .00002136  00000+0  20016-3 0  9998
2 40967  64.7762   3.3023 0129286  67.2463 294.2251 14.90792762109526
SINOD-D 1               
1 40968U 15058E   26141.53567660  .00003006  00000+0  24855-3 0  9993
2 40968  64.7762 342.3613 0117818  63.7848 297.5322 14.95676717112675
SNAP-3 ALICE            
1 40970U 15058G   26141.51887636  .00055808  00000+0  82382-3 0  9998
2 40970  64.7512 195.6903 0033419  25.5487 334.7299 15.54370820112737
LMRST-SAT               
1 40971U 15058H   26141.33565349  .00002231  00000+0  20945-3 0  9992
2 40971  64.7768 358.7075 0131046  69.1488 292.3600 14.90420212109554
SNAP-3 EDDIE            
1 40972U 15058J   26141.52936796  .00053049  00000+0  75061-3 0  9994
2 40972  64.7429 186.5707 0033752  29.3335 330.9693 15.55521247114876
PROPCUBE 3              
1 40973U 15058K   26141.50382053  .00002579  00000+0  22205-3 0  9998
2 40973  64.7691 335.8930 0123158  70.5605 290.8768 14.94057114110819
BISONSAT                
1 40974U 15058L   26141.05066708  .00007498  00000+0  37356-3 0  9993
2 40974  64.7600 261.3343 0078499  58.7051 302.1729 15.15589412111507
SNAP-3 JIMI             
1 40975U 15058M   26141.42607224  .00004253  00000+0  29979-3 0  9997
2 40975  64.7654 304.4239 0105172  66.4820 294.7306 15.01999836110202
PROPCUBE 1 (FLORA)      
1 40976U 15058N   26141.06439915  .00001982  00000+0  19514-3 0  9998
2 40976  64.7759  19.2869 0129835  71.5451 289.9722 14.89049298112223
SINOD-D 3               
1 40977U 15058P   26141.59791997  .00002826  00000+0  24627-3 0  9997
2 40977  64.7734 358.8365 0118332  68.7692 292.6012 14.93789857110784
HORYU-4                 
1 41340U 16012D   26141.39941902  .00152227  00000+0  75460-3 0  9996
2 41340  30.9883 273.2630 0004036  95.4050 264.7068 15.80437185566556
RAVAN                   
1 41849U 16067B   26141.63153612  .00030701  00000+0  51091-3 0  9996
2 41849  97.9920  28.1899 0007114  97.1288 263.0771 15.51970526523578
CELTEE 1                
1 41850U 16067C   26141.40580128  .00003341  00000+0  16163-3 0  9990
2 41850  98.0703   6.1473 0001371  54.8630 305.2731 15.19382960521818
OPTICUBE 04             
1 41851U 16067D   26141.56549514  .00001152  00000+0  76156-4 0  9999
2 41851  98.0724 352.4590 0015021 203.1082 156.9471 15.09530313521151
AEROCUBE 8D             
1 41852U 16067E   26141.56736456  .00005062  00000+0  21253-3 0  9994
2 41852  98.0713   9.7173 0002551 202.6137 157.4986 15.23975180522012
AEROCUBE 8C             
1 41853U 16067F   26141.20272165  .00004964  00000+0  20692-3 0  9994
2 41853  98.0585   6.5880 0006188 141.8657 218.3018 15.24211253521951
CORVUS BC2              
1 42846U 17042X   26141.42185681  .00001651  00000+0  11690-3 0  9999
2 42846  97.4041 303.8205 0012673 197.0527 163.0277 15.06096869483036
CORVUS BC1              
1 42847U 17042Y   26141.41951034  .00001893  00000+0  13283-3 0  9990
2 42847  97.4072 304.6146 0012119 173.2390 186.9003 15.06267692483061
MAKERSAT 0              
1 43016U 17073D   26141.13093424  .00017330  00000+0  48303-3 0  9996
2 43016  97.4655  23.4574 0110118  10.4350 349.9139 15.30862288462320
