OBJECT_NAME,OBJECT_ID,EPOCH,MEAN_MOTION,ECCENTRICITY,INCLINATION,RA_OF_ASC_NODE,ARG_OF_PERICENTER,MEAN_ANOMALY,EPHEMERIS_TYPE,CLASSIFICATION_TYPE,NORAD_CAT_ID,ELEMENT_SET_NO,REV_AT_EPOCH,BSTAR,MEAN_MOTION_DOT,MEAN_MOTION_DDOT
PERSEUS-M1,2014-033AF,2026-05-21T06:34:57.234720,14.95531145,.00125459,97.9636,84.9689,33.4876,326.7135,0,U,40039,999,64661,.99392353E-4,.1042E-4,0
POLYITAN-1,2014-033AJ,2026-05-21T11:33:44.328384,15.32223174,.00059137,98.0963,165.2371,228.6058,131.4674,0,U,40042,999,64950,.40078606E-3,.12393E-3,0
TIGRISAT,2014-033AK,2026-05-21T08:48:44.574048,14.85031228,.00499427,97.7802,292.0012,161.1452,199.1628,0,U,40043,999,64164,.16969559E-3,.1425E-4,0
AEROCUBE 6A,2014-033AM,2026-05-21T10:29:46.295232,14.97774512,.00399345,97.7226,308.6815,104.5559,256.0098,0,U,40045,999,64261,.29471316E-3,.3456E-4,0
AEROCUBE 6B,2014-033AN,2026-05-21T04:45:57.953088,14.99198163,.00387689,97.7184,308.1780,98.5412,262.0207,0,U,40046,999,64271,.3729595E-3,.4553E-4,0
CANX-4,2014-034C,2026-05-21T03:08:53.261664,14.81207409,.00141407,98.3155,15.4472,97.2952,262.9867,0,U,40055,999,64052,.76874747E-4,.542E-5,0
CANX-5,2014-034D,2026-05-21T11:13:27.530400,14.81225039,.00141313,98.3158,15.8381,96.4887,263.7934,0,U,40056,999,63138,.79719644E-4,.564E-5,0
UKUBE-1,2014-037F,2026-05-21T10:55:45.116256,15.13063709,.00006251,98.4247,141.9303,139.0150,221.1125,0,U,40074,999,64451,.3147282E-3,.5489E-4,0
BRITE-PL2 (HEWELIUSZ),2014-049B,2026-05-21T12:36:52.555392,14.94478729,.00137906,97.9071,253.3266,192.2030,167.8857,0,U,40119,999,63746,.15195261E-3,.1583E-4,0
AEROCUBE 5C,2015-058B,2026-05-21T13:11:14.505216,14.91285996,.01299888,64.7681,345.4495,73.7557,287.7810,0,U,40965,999,36168,.19395738E-3,.2097E-4,0
AEROCUBE 7,2015-058C,2026-05-20T19:39:18.023040,14.95493189,.01197307,64.7630,330.5249,72.6870,288.7301,0,U,40966,999,36186,.23986743E-3,.2892E-4,0
FOX-1A (AO-85),2015-058D,2026-05-21T01:14:27.553056,14.90792762,.01292861,64.7762,3.3023,67.2463,294.2251,0,U,40967,999,10952,.20016129E-3,.2136E-4,0
SINOD-D 1,2015-058E,2026-05-21T12:51:22.458240,14.95676717,.01178188,64.7762,342.3613,63.7848,297.5322,0,U,40968,999,11267,.24854689E-3,.3006E-4,0
SNAP-3 ALICE,2015-058G,2026-05-21T12:27:10.917504,15.54370820,.00334198,64.7512,195.6903,25.5487,334.7299,0,U,40970,999,11273,.82382355E-3,.55808E-3,0
LMRST-SAT,2015-058H,2026-05-21T08:03:20.461536,14.90420212,.01310464,64.7768,358.7075,69.1488,292.3600,0,U,40971,999,10955,.20944923E-3,.2231E-4,0
SNAP-3 EDDIE,2015-058J,2026-05-21T12:42:17.391744,15.55521247,.00337526,64.7429,186.5707,29.3335,330.9693,0,U,40972,999,11487,.75061458E-3,.53049E-3,0
PROPCUBE 3,2015-058K,2026-05-21T12:05:30.093792,14.94057114,.01231581,64.7691,335.8930,70.5605,290.8768,0,U,40973,999,11081,.22205202E-3,.2579E-4,0
BISONSAT,2015-058L,2026-05-21T01:12:57.635712,15.15589412,.0078499,64.7600,261.3343,58.7051,302.1729,0,U,40974,999,11150,.37356002E-3,.7498E-4,0
SNAP-3 JIMI,2015-058M,2026-05-21T10:13:32.641536,15.01999836,.01051728,64.7654,304.4239,66.4820,294.7306,0,U,40975,999,11020,.29978707E-3,.4253E-4,0
PROPCUBE 1 (FLORA),2015-058N,2026-05-21T01:32:44.086560,14.89049298,.01298353,64.7759,19.2869,71.5451,289.9722,0,U,40976,999,11222,.19514234E-3,.1982E-4,0
SINOD-D 3,2015-058P,2026-05-21T14:21:00.285408,14.93789857,.0118332,64.7734,358.8365,68.7692,292.6012,0,U,40977,999,11078,.24627325E-3,.2826E-4,0
HORYU-4,2016-012D,2026-05-21T09:35:09.803328,15.80437185,.00040366,30.9883,273.2630,95.4050,264.7068,0,U,41340,999,56655,.75460487E-3,.152227E-2,0
RAVAN,2016-067B,2026-05-21T15:09:24.720768,15.51970526,.00071146,97.9920,28.1899,97.1288,263.0771,0,U,41849,999,52357,.51091045E-3,.30701E-3,0
CELTEE 1,2016-067C,2026-05-21T09:44:21.230592,15.19382960,.00013714,98.0703,6.1473,54.8630,305.2731,0,U,41850,999,52181,.16162934E-3,.3341E-4,0
OPTICUBE 04,2016-067D,2026-05-21T13:34:18.780096,15.09530313,.00150213,98.0724,352.4590,203.1082,156.9471,0,U,41851,999,52115,.7615554E-4,.1152E-4,0
AEROCUBE 8D,2016-067E,2026-05-21T13:37:00.297984,15.23975180,.00025511,98.0713,9.7173,202.6137,157.4986,0,U,41852,999,52201,.21252796E-3,.5062E-4,0
AEROCUBE 8C,2016-067F,2026-05-21T04:51:55.150560,15.24211253,.00061888,98.0585,6.5880,141.8657,218.3018,0,U,41853,999,52195,.20692415E-3,.4964E-4,0
CORVUS BC2,2017-042X,2026-05-21T10:07:28.428384,15.06096869,.0012673,97.4041,303.8205,197.0527,163.0277,0,U,42846,999,48303,.11689947E-3,.1651E-4,0
CORVUS BC1,2017-042Y,2026-05-21T10:04:05.693376,15.06267692,.00121199,97.4072,304.6146,173.2390,186.9003,0,U,42847,999,48306,.13283357E-3,.1893E-4,0
MAKERSAT 0,2017-073D,2026-05-21T03:08:32.718336,15.30862288,.01101185,97.4655,23.4574,10.4350,349.9139,0,U,43016,999,46232,.4830282E-3,.1733E-3,0
